FLOCK 4BE-32            
1 60497U 24149AF  26064.70210382  .00023694  00000+0  62934-3 0  9997
2 60497  97.3770 147.7828 0002654 279.4993  80.5952 15.38268536 86402
FLOCK 4BE-30            
1 60499U 24149AH  26064.19233394  .00018897  00000+0  50618-3 0  9995
2 60499  97.3851 147.8291 0002014 284.1286  75.9735 15.38054269 85702
FLOCK 4BE-11            
1 60501U 24149AK  26064.16752315  .00025655  00000+0  66365-3 0  9991
2 60501  97.3752 147.3717 0003024 284.2425  75.8484 15.39066000 86339
FLOCK 4BE-24            
1 60505U 24149AP  26064.47384167  .00024722  00000+0  64214-3 0  9990
2 60505  97.3767 147.9262 0002925 293.8468  66.2471 15.38947320 86390
TANAGER-1               
1 60507U 24149AR  26064.34973296  .00005482  00000+0  12407-3 0  9994
2 60507  97.3770 157.6642 0006725 235.9479 124.1131 15.43548696 87013
FLOCK 4BE-29            
1 60509U 24149AT  26064.69890215  .00028217  00000+0  70224-3 0  9995
2 60509  97.3852 149.2876 0001938 311.5151  48.5929 15.40232206 86467
FLOCK 4BE-2             
1 60511U 24149AV  26064.73840663  .00050106  00000+0  11410-2 0  9998
2 60511  97.3855 149.8909 0002775 290.0933  70.0016 15.42789267 86503
FLOCK 4BE-13            
1 60512U 24149AW  26064.73943392  .00022908  00000+0  60120-3 0  9994
2 60512  97.3768 148.2964 0003417 282.9829  77.1035 15.38643043 86447
FLOCK 4BE-27            
1 60513U 24149AX  26064.70520051  .00013152  00000+0  42149-3 0  9997
2 60513  97.3873 146.6369 0002856 326.0647  34.0412 15.32483669 86283
FLOCK 4BE-9             
1 60514U 24149AY  26064.65664078  .00019631  00000+0  53664-3 0  9992
2 60514  97.3835 148.1647 0001585 320.2160  39.8968 15.37417003 86397
FLOCK 4BE-6             
1 60516U 24149BA  26064.67778639  .00018566  00000+0  52352-3 0  9994
2 60516  97.3838 147.7173 0002299 311.2604  48.8442 15.36461734 86360
FLOCK 4BE-14            
1 60517U 24149BB  26064.67915256  .00020089  00000+0  54741-3 0  9990
2 60517  97.3755 147.7896 0003206 307.1364  52.9587 15.37508035 86405
FLOCK 4BE-1             
1 60518U 24149BC  26064.66406695  .00022477  00000+0  58749-3 0  9997
2 60518  97.3826 148.7064 0003186 304.1556  55.9387 15.38773894 86432
FLOCK 4BE-28            
1 60519U 24149BD  26064.69564076  .00027561  00000+0  67343-3 0  9998
2 60519  97.3790 149.1621 0003523 303.2517  56.8391 15.40791829 86480
FLOCK 4BE-35            
1 60558U 24149CU  26064.75320280  .00099392  00000+0  22464-2 0  9990
2 60558  97.3793 147.9460 0004603 271.8716  88.2004 15.42792648 86396
FLOCK 4BE-5             
1 60559U 24149CV  26064.62527818  .00025051  00000+0  69689-3 0  9995
2 60559  97.3885 147.8684 0002488 311.3063  48.7966 15.36821928 86351
FLOCK 4BE-12            
1 60560U 24149CW  26064.71794189  .00115489  00000+0  23603-2 0  9994
2 60560  97.3766 148.6210 0005730 275.9896  84.0700 15.45706277 86456
